{"type": "FeatureCollection", "features": [ {"type": "Feature", "properties": {"norad_id": 31287, "name": "FENGYUN 1C DEB", "group": "fengyun-1c-debris", "lat": 28.05385933522201, "lon": -116.20028256880403, "alt_km": 809.4167013895349, "timestamp": "2025-12-27T15:27:11.472283+00:00", "meta": {"OBJECT_NAME": "FENGYUN 1C DEB", "OBJECT_ID": "1999-025BNV", "EPOCH": "2025-12-17T09:14:55.199040", "MEAN_MOTION": 14.280549, "ECCENTRICITY": 0.0027206, "INCLINATION": 99.41, "RA_OF_ASC_NODE": 47.6846, "ARG_OF_PERICENTER": 50.1324, "MEAN_ANOMALY": 310.2241, "EPHEMERIS_TYPE": 0, "CLASSIFICATION_TYPE": "U", "NORAD_CAT_ID": 31287, "ELEMENT_SET_NO": 999, "REV_AT_EPOCH": 96752, "BSTAR": 0.0011667317, "MEAN_MOTION_DOT": 2.86e-05, "MEAN_MOTION_DDOT": 0}, "tle": {"line1": "1 31287U 99025BNV 25351.38536110  .00002860  00000+0  11667-2 0  9997", "line2": "2 31287  99.4100  47.6846 0027206  50.1324 310.2241 14.28054900967528"}}, "geometry": {"type": "Point", "coordinates": [-116.20028256880403, 28.05385933522201]}}, {"type": "Feature", "properties": {"norad_id": 31288, "name": "FENGYUN 1C DEB", "group": "fengyun-1c-debris", "lat": -2.8185327403466225, "lon": 161.87189292922542, "alt_km": 581.4577708436473, "timestamp": "2025-12-27T15:27:11.472294+00:00", "meta": {"OBJECT_NAME": "FENGYUN 1C DEB", "OBJECT_ID": "1999-025BNW", "EPOCH": "2025-12-27T05:02:07.678176", "MEAN_MOTION": 14.97438425, "ECCENTRICITY": 0.00224946, "INCLINATION": 98.7448, "RA_OF_ASC_NODE": 160.9523, "ARG_OF_PERICENTER": 255.742, "MEAN_ANOMALY": 282.6559, "EPHEMERIS_TYPE": 0, "CLASSIFICATION_TYPE": "U", "NORAD_CAT_ID": 31288, "ELEMENT_SET_NO": 999, "REV_AT_EPOCH": 97773, "BSTAR": 0.0064443979, "MEAN_MOTION_DOT": 0.00076089, "MEAN_MOTION_DDOT": 0}, "tle": {"line1": "1 31288U 99025BNW 25361.20981109  .00076089  00000+0  64444-2 0  9997", "line2": "2 31288  98.7448 160.9523 0022494 255.7420 282.6559 14.97438425977733"}}, "geometry": {"type": "Point", "coordinates": [161.87189292922542, -2.8185327403466225]}}, {"type": "Feature", "properties": {"norad_id": 31293, "name": "FENGYUN 1C DEB", "group": "fengyun-1c-debris", "lat": -2.1952061555819973, "lon": 9.271271510375058, "alt_km": 875.4222707638892, "timestamp": "2025-12-27T15:27:11.472304+00:00", "meta": {"OBJECT_NAME": "FENGYUN 1C DEB", "OBJECT_ID": "1999-025BPB", "EPOCH": "2025-12-27T07:04:19.327296", "MEAN_MOTION": 14.30818427, "ECCENTRICITY": 0.01260291, "INCLINATION": 98.4229, "RA_OF_ASC_NODE": 8.6074, "ARG_OF_PERICENTER": 201.5814, "MEAN_ANOMALY": 158.003, "EPHEMERIS_TYPE": 0, "CLASSIFICATION_TYPE": "U", "NORAD_CAT_ID": 31293, "ELEMENT_SET_NO": 999, "REV_AT_EPOCH": 65452, "BSTAR": 7.7688836e-05, "MEAN_MOTION_DOT": 1.78e-06, "MEAN_MOTION_DDOT": 0}, "tle": {"line1": "1 31293U 99025BPB 25361.29466814  .00000178  00000+0  77689-4 0  9996", "line2": "2 31293  98.4229   8.6074 0126029 201.5814 158.0030 14.30818427654527"}}, "geometry": {"type": "Point", "coordinates": [9.271271510375058, -2.1952061555819973]}}, {"type": "Feature", "properties": {"norad_id": 31294, "name": "FENGYUN 1C DEB", "group": "fengyun-1c-debris", "lat": -48.11391451251526, "lon": 6.2831489263399645, "alt_km": 778.2629354577812, "timestamp": "2025-12-27T15:27:11.472314+00:00", "meta": {"OBJECT_NAME": "FENGYUN 1C DEB", "OBJECT_ID": "1999-025BPC", "EPOCH": "2025-12-25T22:57:37.291104", "MEAN_MOTION": 14.15338572, "ECCENTRICITY": 0.0099077, "INCLINATION": 98.5439, "RA_OF_ASC_NODE": 355.0165, "ARG_OF_PERICENTER": 302.8872, "MEAN_ANOMALY": 56.2798, "EPHEMERIS_TYPE": 0, "CLASSIFICATION_TYPE": "U", "NORAD_CAT_ID": 31294, "ELEMENT_SET_NO": 999, "REV_AT_EPOCH": 97040, "BSTAR": 0.00048177, "MEAN_MOTION_DOT": 9.41e-06, "MEAN_MOTION_DDOT": 0}, "tle": {"line1": "1 31294U 99025BPC 25359.95668161  .00000941  00000+0  48177-3 0  9993", "line2": "2 31294  98.5439 355.0165 0099077 302.8872  56.2798 14.15338572970402"}}, "geometry": {"type": "Point", "coordinates": [6.2831489263399645, -48.11391451251526]}}, {"type": "Feature", "properties": {"norad_id": 31295, "name": "FENGYUN 1C DEB", "group": "fengyun-1c-debris", "lat": -12.998011686584809, "lon": -172.90094451321121, "alt_km": 950.8129179443285, "timestamp": "2025-12-27T15:27:11.472324+00:00", "meta": {"OBJECT_NAME": "FENGYUN 1C DEB", "OBJECT_ID": "1999-025BPD", "EPOCH": "2025-12-25T11:56:32.906976", "MEAN_MOTION": 13.96834303, "ECCENTRICITY": 0.0077253, "INCLINATION": 98.3163, "RA_OF_ASC_NODE": 183.2226, "ARG_OF_PERICENTER": 215.0084, "MEAN_ANOMALY": 144.5989, "EPHEMERIS_TYPE": 0, "CLASSIFICATION_TYPE": "U", "NORAD_CAT_ID": 31295, "ELEMENT_SET_NO": 999, "REV_AT_EPOCH": 95681, "BSTAR": 0.00010445, "MEAN_MOTION_DOT": 1.11e-06, "MEAN_MOTION_DDOT": 0}, "tle": {"line1": "1 31295U 99025BPD 25359.49760309  .00000111  00000+0  10445-3 0  9996", "line2": "2 31295  98.3163 183.2226 0077253 215.0084 144.5989 13.96834303956819"}}, "geometry": {"type": "Point", "coordinates": [-172.90094451321121, -12.998011686584809]}}, {"type": "Feature", "properties": {"norad_id": 31296, "name": "FENGYUN 1C DEB", "group": "fengyun-1c-debris", "lat": -28.800870360049892, "lon": 93.19853365904632, "alt_km": 649.9934002278624, "timestamp": "2025-12-27T15:27:11.472333+00:00", "meta": {"OBJECT_NAME": "FENGYUN 1C DEB", "OBJECT_ID": "1999-025BPE", "EPOCH": "2025-12-26T23:49:36.935904", "MEAN_MOTION": 14.72184934, "ECCENTRICITY": 0.00202093, "INCLINATION": 99.0658, "RA_OF_ASC_NODE": 277.5093, "ARG_OF_PERICENTER": 164.7773, "MEAN_ANOMALY": 195.4043, "EPHEMERIS_TYPE": 0, "CLASSIFICATION_TYPE": "U", "NORAD_CAT_ID": 31296, "ELEMENT_SET_NO": 999, "REV_AT_EPOCH": 97559, "BSTAR": 0.0049763592, "MEAN_MOTION_DOT": 0.0003155, "MEAN_MOTION_DDOT": 0}, "tle": {"line1": "1 31296U 99025BPE 25360.99278861  .00031550  00000+0  49764-2 0  9997", "line2": "2 31296  99.0658 277.5093 0020209 164.7773 195.4043 14.72184934975595"}}, "geometry": {"type": "Point", "coordinates": [93.19853365904632, -28.800870360049892]}}, {"type": "Feature", "properties": {"norad_id": 31297, "name": "FENGYUN 1C DEB", "group": "fengyun-1c-debris", "lat": -73.52883996334992, "lon": -72.53367524445724, "alt_km": 808.5812297467019, "timestamp": "2025-12-27T15:27:11.472345+00:00", "meta": {"OBJECT_NAME": "FENGYUN 1C DEB", "OBJECT_ID": "1999-025BPF", "EPOCH": "2025-12-27T03:33:47.312064", "MEAN_MOTION": 14.5712914, "ECCENTRICITY": 0.01396402, "INCLINATION": 98.9353, "RA_OF_ASC_NODE": 139.0841, "ARG_OF_PERICENTER": 79.3017, "MEAN_ANOMALY": 99.4334, "EPHEMERIS_TYPE": 0, "CLASSIFICATION_TYPE": "U", "NORAD_CAT_ID": 31297, "ELEMENT_SET_NO": 999, "REV_AT_EPOCH": 99525, "BSTAR": 0.00033993704, "MEAN_MOTION_DOT": 1.692e-05, "MEAN_MOTION_DDOT": 0}, "tle": {"line1": "1 31297U 99025BPF 25361.14846426  .00001692  00000+0  33994-3 0  9997", "line2": "2 31297  98.9353 139.0841 0139640  79.3017  99.4334 14.57129140995253"}}, "geometry": {"type": "Point", "coordinates": [-72.53367524445724, -73.52883996334992]}}, {"type": "Feature", "properties": {"norad_id": 31300, "name": "FENGYUN 1C DEB", "group": "fengyun-1c-debris", "lat": 66.24550611173822, "lon": -75.5106074794743, "alt_km": 837.8456193195962, "timestamp": "2025-12-27T15:27:11.472355+00:00", "meta": {"OBJECT_NAME": "FENGYUN 1C DEB", "OBJECT_ID": "1999-025BPJ", "EPOCH": "2025-12-27T05:01:04.221696", "MEAN_MOTION": 14.15191949, "ECCENTRICITY": 0.00594493, "INCLINATION": 99.541, "RA_OF_ASC_NODE": 81.5579, "ARG_OF_PERICENTER": 19.063, "MEAN_ANOMALY": 38.0781, "EPHEMERIS_TYPE": 0, "CLASSIFICATION_TYPE": "U", "NORAD_CAT_ID": 31300, "ELEMENT_SET_NO": 999, "REV_AT_EPOCH": 96379, "BSTAR": 0.0012875866, "MEAN_MOTION_DOT": 2.495e-05, "MEAN_MOTION_DDOT": 0}, "tle": {"line1": "1 31300U 99025BPJ 25361.20907664  .00002495  00000+0  12876-2 0  9998", "line2": "2 31300  99.5410  81.5579 0059449  19.0630  38.0781 14.15191949963797"}}, "geometry": {"type": "Point", "coordinates": [-75.5106074794743, 66.24550611173822]}}, {"type": "Feature", "properties": {"norad_id": 31302, "name": "FENGYUN 1C DEB", "group": "fengyun-1c-debris", "lat": -72.48892075753862, "lon": -166.90051372683203, "alt_km": 815.6383641848424, "timestamp": "2025-12-27T15:27:11.472365+00:00", "meta": {"OBJECT_NAME": "FENGYUN 1C DEB", "OBJECT_ID": "1999-025BPL", "EPOCH": "2025-12-19T15:12:58.171104", "MEAN_MOTION": 14.27574345, "ECCENTRICITY": 0.002659, "INCLINATION": 99.4129, "RA_OF_ASC_NODE": 36.2, "ARG_OF_PERICENTER": 35.1141, "MEAN_ANOMALY": 117.7071, "EPHEMERIS_TYPE": 0, "CLASSIFICATION_TYPE": "U", "NORAD_CAT_ID": 31302, "ELEMENT_SET_NO": 999, "REV_AT_EPOCH": 96456, "BSTAR": 0.00096178, "MEAN_MOTION_DOT": 2.325e-05, "MEAN_MOTION_DDOT": 0}, "tle": {"line1": "1 31302U 99025BPL 25353.63400661  .00002325  00000+0  96178-3 0  9993", "line2": "2 31302  99.4129  36.2000 0026590  35.1141 117.7071 14.27574345964569"}}, "geometry": {"type": "Point", "coordinates": [-166.90051372683203, -72.48892075753862]}}, {"type": "Feature", "properties": {"norad_id": 31303, "name": "FENGYUN 1C DEB", "group": "fengyun-1c-debris", "lat": 2.7376612908767934, "lon": -162.19513889187408, "alt_km": 854.6295340096385, "timestamp": "2025-12-27T15:27:11.472375+00:00", "meta": {"OBJECT_NAME": "FENGYUN 1C DEB", "OBJECT_ID": "1999-025BPM", "EPOCH": "2025-12-27T07:48:37.152000", "MEAN_MOTION": 14.1103107, "ECCENTRICITY": 0.00120806, "INCLINATION": 98.7038, "RA_OF_ASC_NODE": 17.0766, "ARG_OF_PERICENTER": 113.3876, "MEAN_ANOMALY": 246.8568, "EPHEMERIS_TYPE": 0, "CLASSIFICATION_TYPE": "U", "NORAD_CAT_ID": 31303, "ELEMENT_SET_NO": 999, "REV_AT_EPOCH": 96524, "BSTAR": 0.00013977283, "MEAN_MOTION_DOT": 2.09e-06, "MEAN_MOTION_DDOT": 0}, "tle": {"line1": "1 31303U 99025BPM 25361.32543000  .00000209  00000+0  13977-3 0  9999", "line2": "2 31303  98.7038  17.0766 0012080 113.3876 246.8568 14.11031070965247"}}, "geometry": {"type": "Point", "coordinates": [-162.19513889187408, 2.7376612908767934]}}]}